start=new Date('2022-09-12T00:00:00.000Z').valueOf();
sats=[{"APOAPSIS":"548.263","COUNTRY_CODE":"US","LAUNCH_DATE":"2020-08-07","SITE":"AFETR","RA_OF_ASC_NODE":"59.9508","OBJECT_ID":"2020-055BF","MEAN_MOTION_DDOT":"0.0000000000000","PERIAPSIS":"546.155","SEMIMAJOR_AXIS":"6925.344","EPOCH":"2022-09-11T18:25:56.864928","TLE_LINE2":"2 46080  53.0569  59.9508 0001522  68.7141 291.4010 15.06401552117129","TLE_LINE1":"1 46080U 20055BF  22254.76801927 -.00001363  00000-0 -72630-4 0  9992","TIME_SYSTEM":"UTC","REV_AT_EPOCH":"11712","OBJECT_TYPE":"PAYLOAD","EPHEMERIS_TYPE":"0","BSTAR":"-0.00007263000000","ARG_OF_PERICENTER":"68.7141","CLASSIFICATION_TYPE":"U","NORAD_CAT_ID":"46080","FILE":"3569361","MEAN_ELEMENT_THEORY":"SGP4","CENTER_NAME":"EARTH","RCS_SIZE":"LARGE","PERIOD":"95.592","GP_ID":"212354169","ECCENTRICITY":"0.00015220","REF_FRAME":"TEME","OBJECT_NAME":"STARLINK-1568","ELEMENT_SET_NO":"999","DECAY_DATE":null,"MEAN_ANOMALY":"291.4010","MEAN_MOTION_DOT":"-0.00001363","INCLINATION":"53.0569","MEAN_MOTION":"15.06401552"},{"OBJECT_NAME":"STARLINK-1571","ELEMENT_SET_NO":"999","DECAY_DATE":null,"MEAN_ANOMALY":"307.3366","MEAN_MOTION":"15.06392823","INCLINATION":"53.0541","MEAN_MOTION_DOT":"0.00000714","ARG_OF_PERICENTER":"52.7748","BSTAR":"0.00006686300000","CLASSIFICATION_TYPE":"U","MEAN_ELEMENT_THEORY":"SGP4","FILE":"3569361","NORAD_CAT_ID":"46081","CENTER_NAME":"EARTH","RCS_SIZE":"LARGE","PERIOD":"95.593","ECCENTRICITY":"0.00013660","GP_ID":"212354917","REF_FRAME":"TEME","TLE_LINE1":"1 46081U 20055BG  22254.73577984  .00000714  00000-0  66863-4 0  9991","TLE_LINE2":"2 46081  53.0541  60.0975 0001366  52.7748 307.3366 15.06392823117135","PERIAPSIS":"546.290","SEMIMAJOR_AXIS":"6925.371","MEAN_MOTION_DDOT":"0.0000000000000","EPOCH":"2022-09-11T17:39:31.378176","TIME_SYSTEM":"UTC","OBJECT_TYPE":"PAYLOAD","REV_AT_EPOCH":"11713","EPHEMERIS_TYPE":"0","COUNTRY_CODE":"US","APOAPSIS":"548.182","SITE":"AFETR","LAUNCH_DATE":"2020-08-07","RA_OF_ASC_NODE":"60.0975","OBJECT_ID":"2020-055BG"},{"RCS_SIZE":"LARGE","PERIOD":"95.592","CENTER_NAME":"EARTH","GP_ID":"212353667","ECCENTRICITY":"0.00011540","REF_FRAME":"TEME","ARG_OF_PERICENTER":"85.3098","BSTAR":"0.00015927000000","CLASSIFICATION_TYPE":"U","FILE":"3569361","NORAD_CAT_ID":"46082","MEAN_ELEMENT_THEORY":"SGP4","MEAN_ANOMALY":"274.8023","MEAN_MOTION_DOT":"0.00002092","MEAN_MOTION":"15.06400777","INCLINATION":"53.0557","OBJECT_NAME":"STARLINK-1578","ELEMENT_SET_NO":"999","DECAY_DATE":null,"RA_OF_ASC_NODE":"59.7188","OBJECT_ID":"2020-055BH","APOAPSIS":"548.010","COUNTRY_CODE":"US","LAUNCH_DATE":"2020-08-07","SITE":"AFETR","REV_AT_EPOCH":"11715","OBJECT_TYPE":"PAYLOAD","EPHEMERIS_TYPE":"0","EPOCH":"2022-09-11T19:46:54.688512","PERIAPSIS":"546.412","SEMIMAJOR_AXIS":"6925.346","MEAN_MOTION_DDOT":"0.0000000000000","TLE_LINE1":"1 46082U 20055BH  22254.82424408  .00002092  00000-0  15927-3 0  9999","TLE_LINE2":"2 46082  53.0557  59.7188 0001154  85.3098 274.8023 15.06400777117157","TIME_SYSTEM":"UTC"},{"REF_FRAME":"TEME","GP_ID":"212353418","ECCENTRICITY":"0.00013350","CENTER_NAME":"EARTH","RCS_SIZE":"LARGE","PERIOD":"95.592","MEAN_ELEMENT_THEORY":"SGP4","NORAD_CAT_ID":"46083","FILE":"3569361","BSTAR":"0.00012380000000","ARG_OF_PERICENTER":"84.6689","CLASSIFICATION_TYPE":"U","INCLINATION":"53.0579","MEAN_MOTION":"15.06409444","MEAN_MOTION_DOT":"0.00001563","MEAN_ANOMALY":"275.4452","DECAY_DATE":null,"ELEMENT_SET_NO":"999","OBJECT_NAME":"STARLINK-1579","OBJECT_ID":"2020-055BJ","RA_OF_ASC_NODE":"59.5533","SITE":"AFETR","LAUNCH_DATE":"2020-08-07","COUNTRY_CODE":"US","APOAPSIS":"548.109","EPHEMERIS_TYPE":"0","OBJECT_TYPE":"PAYLOAD","REV_AT_EPOCH":"11715","TIME_SYSTEM":"UTC","TLE_LINE2":"2 46083  53.0579  59.5533 0001335  84.6689 275.4452 15.06409444117156","TLE_LINE1":"1 46083U 20055BJ  22254.86109128  .00001563  00000-0  12380-3 0  9995","SEMIMAJOR_AXIS":"6925.320","PERIAPSIS":"546.260","MEAN_MOTION_DDOT":"0.0000000000000","EPOCH":"2022-09-11T20:39:58.286592"},{"ELEMENT_SET_NO":"999","DECAY_DATE":null,"OBJECT_NAME":"STARLINK-1585","MEAN_MOTION_DOT":"-0.00000372","INCLINATION":"53.0558","MEAN_MOTION":"15.06403045","MEAN_ANOMALY":"280.8593","NORAD_CAT_ID":"46117","FILE":"3568329","MEAN_ELEMENT_THEORY":"SGP4","CLASSIFICATION_TYPE":"U","BSTAR":"-0.00000605600000","ARG_OF_PERICENTER":"79.2553","ECCENTRICITY":"0.00013950","GP_ID":"212284402","REF_FRAME":"TEME","CENTER_NAME":"EARTH","RCS_SIZE":"LARGE","PERIOD":"95.592","TIME_SYSTEM":"UTC","MEAN_MOTION_DDOT":"0.0000000000000","PERIAPSIS":"546.238","SEMIMAJOR_AXIS":"6925.339","EPOCH":"2022-09-11T10:18:58.801536","TLE_LINE2":"2 46117  53.0558 261.4772 0001395  79.2553 280.8593 15.06403045114790","TLE_LINE1":"1 46117U 20057A   22254.42984724 -.00000372  00000-0 -60560-5 0  9994","EPHEMERIS_TYPE":"0","REV_AT_EPOCH":"11479","OBJECT_TYPE":"PAYLOAD","LAUNCH_DATE":"2020-08-18","SITE":"AFETR","APOAPSIS":"548.170","COUNTRY_CODE":"US","OBJECT_ID":"2020-057A","RA_OF_ASC_NODE":"261.4772"},{"BSTAR":"-0.00007115400000","ARG_OF_PERICENTER":"75.6772","CLASSIFICATION_TYPE":"U","FILE":"3568903","NORAD_CAT_ID":"46118","MEAN_ELEMENT_THEORY":"SGP4","RCS_SIZE":"LARGE","PERIOD":"95.592","CENTER_NAME":"EARTH","GP_ID":"212319220","ECCENTRICITY":"0.00014160","REF_FRAME":"TEME","OBJECT_NAME":"STARLINK-1588","DECAY_DATE":null,"ELEMENT_SET_NO":"999","MEAN_ANOMALY":"284.4374","MEAN_MOTION_DOT":"-0.00001341","MEAN_MOTION":"15.06401806","INCLINATION":"53.0532","APOAPSIS":"548.189","COUNTRY_CODE":"US","LAUNCH_DATE":"2020-08-18","SITE":"AFETR","RA_OF_ASC_NODE":"282.0259","OBJECT_ID":"2020-057B","PERIAPSIS":"546.227","MEAN_MOTION_DDOT":"0.0000000000000","SEMIMAJOR_AXIS":"6925.343","EPOCH":"2022-09-11T07:21:10.232352","TLE_LINE2":"2 46118  53.0532 282.0259 0001416  75.6772 284.4374 15.06401806115116","TLE_LINE1":"1 46118U 20057B   22254.30636843 -.00001341  00000-0 -71154-4 0  9995","TIME_SYSTEM":"UTC","REV_AT_EPOCH":"11511","OBJECT_TYPE":"PAYLOAD","EPHEMERIS_TYPE":"0"},{"MEAN_ANOMALY":"290.8113","INCLINATION":"53.0537","MEAN_MOTION":"15.06414820","MEAN_MOTION_DOT":"-0.00000230","OBJECT_NAME":"STARLINK-1593","ELEMENT_SET_NO":"999","DECAY_DATE":null,"PERIOD":"95.591","RCS_SIZE":"LARGE","CENTER_NAME":"EARTH","GP_ID":"212360304","ECCENTRICITY":"0.00015340","REF_FRAME":"TEME","CLASSIFICATION_TYPE":"U","BSTAR":"0.00000343050000","ARG_OF_PERICENTER":"69.3041","MEAN_ELEMENT_THEORY":"SGP4","NORAD_CAT_ID":"46119","FILE":"3569399","OBJECT_TYPE":"PAYLOAD","REV_AT_EPOCH":"11461","EPHEMERIS_TYPE":"0","TLE_LINE1":"1 46119U 20057C   22255.09146910 -.00000230  00000-0  34305-5 0  9997","TLE_LINE2":"2 46119  53.0537 278.5073 0001534  69.3041 290.8113 15.06414820114612","PERIAPSIS":"546.106","SEMIMAJOR_AXIS":"6925.303","MEAN_MOTION_DDOT":"0.0000000000000","EPOCH":"2022-09-12T02:11:42.930240","TIME_SYSTEM":"UTC","RA_OF_ASC_NODE":"278.5073","OBJECT_ID":"2020-057C","COUNTRY_CODE":"US","APOAPSIS":"548.230","SITE":"AFETR","LAUNCH_DATE":"2020-08-18"},{"BSTAR":"-0.00000491420000","CLASSIFICATION_TYPE":"U","ARG_OF_PERICENTER":"67.9784","MEAN_ELEMENT_THEORY":"SGP4","NORAD_CAT_ID":"46120","FILE":"3569361","PERIOD":"95.593","RCS_SIZE":"LARGE","CENTER_NAME":"EARTH","ECCENTRICITY":"0.00015130","GP_ID":"212353671","REF_FRAME":"TEME","OBJECT_NAME":"STARLINK-1601","ELEMENT_SET_NO":"999","DECAY_DATE":null,"MEAN_ANOMALY":"292.1365","INCLINATION":"53.0551","MEAN_MOTION":"15.06392217","MEAN_MOTION_DOT":"-0.00000355","COUNTRY_CODE":"US","APOAPSIS":"548.285","SITE":"AFETR","LAUNCH_DATE":"2020-08-18","RA_OF_ASC_NODE":"280.9738","OBJECT_ID":"2020-057D","TLE_LINE2":"2 46120  53.0551 280.9738 0001513  67.9784 292.1365 15.06392217115159","TLE_LINE1":"1 46120U 20057D   22254.54595836 -.00000355  00000-0 -49142-5 0  9997","SEMIMAJOR_AXIS":"6925.372","PERIAPSIS":"546.190","EPOCH":"2022-09-11T13:06:10.802304","MEAN_MOTION_DDOT":"0.0000000000000","TIME_SYSTEM":"UTC","OBJECT_TYPE":"PAYLOAD","REV_AT_EPOCH":"11515","EPHEMERIS_TYPE":"0"},{"EPHEMERIS_TYPE":"0","OBJECT_TYPE":"PAYLOAD","REV_AT_EPOCH":"11413","TIME_SYSTEM":"UTC","TLE_LINE1":"1 46121U 20057E   22254.44827010 -.00000268  00000-0  92386-6 0  9990","TLE_LINE2":"2 46121  53.0532 261.4127 0001556  60.2093 299.9051 15.06404557114136","PERIAPSIS":"546.122","SEMIMAJOR_AXIS":"6925.335","MEAN_MOTION_DDOT":"0.0000000000000","EPOCH":"2022-09-11T10:45:30.536640","OBJECT_ID":"2020-057E","RA_OF_ASC_NODE":"261.4127","SITE":"AFETR","LAUNCH_DATE":"2020-08-18","COUNTRY_CODE":"US","APOAPSIS":"548.277","INCLINATION":"53.0532","MEAN_MOTION":"15.06404557","MEAN_MOTION_DOT":"-0.00000268","MEAN_ANOMALY":"299.9051","ELEMENT_SET_NO":"999","DECAY_DATE":null,"OBJECT_NAME":"STARLINK-1602","ECCENTRICITY":"0.00015560","GP_ID":"212318970","REF_FRAME":"TEME","RCS_SIZE":"LARGE","CENTER_NAME":"EARTH","PERIOD":"95.592","MEAN_ELEMENT_THEORY":"SGP4","NORAD_CAT_ID":"46121","FILE":"3568903","BSTAR":"0.00000092386000","CLASSIFICATION_TYPE":"U","ARG_OF_PERICENTER":"60.2093"},{"TLE_LINE1":"1 46122U 20057F   22254.85556814  .00002444  00000-0  18287-3 0  9999","TLE_LINE2":"2 46122  53.0531 239.5609 0001492  55.1881 304.9248 15.06405115115737","PERIAPSIS":"546.165","SEMIMAJOR_AXIS":"6925.333","EPOCH":"2022-09-11T20:32:01.087296","MEAN_MOTION_DDOT":"0.0000000000000","TIME_SYSTEM":"UTC","OBJECT_TYPE":"PAYLOAD","REV_AT_EPOCH":"11573","EPHEMERIS_TYPE":"0","COUNTRY_CODE":"US","APOAPSIS":"548.231","SITE":"AFETR","LAUNCH_DATE":"2020-08-18","RA_OF_ASC_NODE":"239.5609","OBJECT_ID":"2020-057F","OBJECT_NAME":"STARLINK-1604","ELEMENT_SET_NO":"999","DECAY_DATE":null,"MEAN_ANOMALY":"304.9248","INCLINATION":"53.0531","MEAN_MOTION":"15.06405115","MEAN_MOTION_DOT":"0.00002444","CLASSIFICATION_TYPE":"U","BSTAR":"0.00018287000000","ARG_OF_PERICENTER":"55.1881","MEAN_ELEMENT_THEORY":"SGP4","NORAD_CAT_ID":"46122","FILE":"3569361","RCS_SIZE":"LARGE","PERIOD":"95.592","CENTER_NAME":"EARTH","ECCENTRICITY":"0.00014920","GP_ID":"212354673","REF_FRAME":"TEME"}];
